NORAD_CAT_ID,OBJECT_NAME,OBJECT_TYPE,EPOCH,MEAN_MOTION,ECCENTRICITY,INCLINATION,RA_OF_ASC_NODE,ARG_OF_PERICENTER,MEAN_ANOMALY,BSTAR,MEAN_MOTION_DOT,MEAN_MOTION_DDOT,TLE_LINE0,TLE_LINE1,TLE_LINE2,SEMIMAJOR_AXIS,PERIOD,APOGEE,PERIGEE,DECAYED
51770.0,STARLINK-3612,PAYLOAD,2023-02-07 20:48:41,15.0884839,0.0001311,53.2186,353.1343,125.5661,234.5453,0.00042679,6.512e-05,0.0,0 STARLINK-3612,1 51770U 22017C   23038.86714122  .00006512  00000-0  42679-3 0  9994,2 51770  53.2186 353.1343 0001311 125.5661 234.5453 15.08848390 52651,6917.855,95.437,540.627,538.813,0.0
51770.0,STARLINK-3612,PAYLOAD,2023-02-07 22:24:04,15.08851278,0.0001225,53.2179,352.8364,121.7554,238.3558,0.00064496,9.995e-05,0.0,0 STARLINK-3612,1 51770U 22017C   23038.93338118  .00009995  00000-0  64496-3 0  9998,2 51770  53.2179 352.8364 0001225 121.7554 238.3558 15.08851278 54104,6917.846,95.437,540.558,538.863,0.0
51770.0,STARLINK-3612,PAYLOAD,2023-02-09 06:11:47,15.08848445,0.0001134,53.2183,346.8889,98.9792,261.1328,0.0010016,0.00015692,0.0,0 STARLINK-3612,1 51770U 22017C   23040.25818810  .00015692  00000-0  10016-2 0  9997,2 51770  53.2183 346.8889 0001134  98.9792 261.1328 15.08848445 54305,6917.855,95.437,540.504,538.935,0.0
51770.0,STARLINK-3612,PAYLOAD,2023-02-10 01:16:25,15.08842414,0.0001646,53.2189,343.3154,123.4691,236.6459,0.00050322,7.73e-05,0.0,0 STARLINK-3612,1 51770U 22017C   23041.05307163  .00007730  00000-0  50322-3 0  9999,2 51770  53.2189 343.3154 0001646 123.4691 236.6459 15.08842414 52982,6917.873,95.437,540.877,538.599,0.0
51770.0,STARLINK-3612,PAYLOAD,2023-02-11 02:42:34,15.08866805,0.0001028,53.217,338.5684,136.4373,223.6701,0.00087147,0.00013619,0.0,0 STARLINK-3612,1 51770U 22017C   23042.11290491  .00013619  00000-0  87147-3 0  9990,2 51770  53.2170 338.5684 0001028 136.4373 223.6701 15.08866805 54585,6917.798,95.436,540.375,538.952,0.0
51770.0,STARLINK-3612,PAYLOAD,2023-02-12 04:08:45,15.08843658,0.0001085,53.2179,333.806,96.844,263.2676,0.00042734,6.52e-05,0.0,0 STARLINK-3612,1 51770U 22017C   23043.17274911  .00006520  00000-0  42734-3 0  9992,2 51770  53.2179 333.8060 0001085  96.8440 263.2676 15.08843658 54747,6917.869,95.437,540.485,538.984,0.0
51770.0,STARLINK-3612,PAYLOAD,2023-02-12 12:05:41,15.08839191,8.73e-05,53.2169,332.3196,60.323,299.7849,0.00044487,6.799e-05,0.0,0 STARLINK-3612,1 51770U 22017C   23043.50395153  .00006799  00000-0  44487-3 0  9996,2 51770  53.2169 332.3196 0000873  60.3230 299.7849 15.08839191 53356,6917.883,95.438,540.352,539.144,0.0
51770.0,STARLINK-3612,PAYLOAD,2023-02-13 03:59:33,15.08828653,0.0001219,53.2172,329.3466,81.4962,278.6168,0.0004169,6.351e-05,0.0,0 STARLINK-3612,1 51770U 22017C   23044.16635709  .00006351  00000-0  41690-3 0  9990,2 51770  53.2172 329.3466 0001219  81.4962 278.6168 15.08828653 54898,6917.915,95.438,540.623,538.937,0.0
51770.0,STARLINK-3612,PAYLOAD,2023-02-14 11:47:16,15.08836784,0.0001175,53.2174,323.3988,69.0351,291.0767,0.00013227,1.818e-05,0.0,0 STARLINK-3612,1 51770U 22017C   23045.49116038  .00001818  00000-0  13227-3 0  9994,2 51770  53.2174 323.3988 0001175  69.0351 291.0767 15.08836784 55099,6917.89,95.438,540.568,538.942,0.0
51770.0,STARLINK-3612,PAYLOAD,2023-02-15 11:38:03,15.08843527,0.0001407,53.2185,318.9397,76.7639,283.351,0.00011899,1.606e-05,0.0,0 STARLINK-3612,1 51770U 22017C   23046.48476148  .00001606  00000-0  11899-3 0  9993,2 51770  53.2185 318.9397 0001407  76.7639 283.3510 15.08843527 53807,6917.87,95.437,540.708,538.761,0.0
51770.0,STARLINK-3612,PAYLOAD,2023-02-15 17:59:36,15.08840956,0.0001493,53.2177,317.75,83.202,276.9142,0.00025023,3.697e-05,0.0,0 STARLINK-3612,1 51770U 22017C   23046.74972277  .00003697  00000-0  25023-3 0  9992,2 51770  53.2177 317.7500 0001493  83.2020 276.9142 15.08840956 53849,6917.877,95.437,540.775,538.71,0.0
51770.0,STARLINK-3612,PAYLOAD,2023-02-16 00:21:08,15.08855845,0.0002173,53.2153,316.5634,73.4859,286.6372,0.00041404,6.31e-05,0.0,0 STARLINK-3612,1 51770U 22017C   23047.01467666  .00006310  00000-0  41404-3 0  9990,2 51770  53.2153 316.5634 0002173  73.4859 286.6372 15.08855845 55326,6917.832,95.437,541.2,538.194,0.0
51770.0,STARLINK-3612,PAYLOAD,2023-02-16 11:28:50,15.08846729,0.0002064,53.2186,314.4789,64.2322,295.8883,0.00022962,3.369e-05,0.0,0 STARLINK-3612,1 51770U 22017C   23047.47835945  .00003369  00000-0  22962-3 0  9998,2 51770  53.2186 314.4789 0002064  64.2322 295.8883 15.08846729 55399,6917.86,95.437,541.153,538.297,0.0
51770.0,STARLINK-3612,PAYLOAD,2023-02-16 21:01:10,15.08821501,0.0001338,53.218,312.6941,65.1519,294.9612,-0.00015921,-2.819e-05,0.0,0 STARLINK-3612,1 51770U 22017C   23047.87581133 -.00002819  00000-0 -15921-3 0  9997,2 51770  53.2180 312.6941 0001338  65.1519 294.9612 15.08821501 54013,6917.937,95.439,540.728,538.876,0.0
51770.0,STARLINK-3612,PAYLOAD,2023-02-16 22:36:33,15.08822175,0.0001576,53.2161,312.3987,58.116,301.9986,-0.00012808,-2.325e-05,0.0,0 STARLINK-3612,1 51770U 22017C   23047.94205261 -.00002325  00000-0 -12808-3 0  9993,2 51770  53.2161 312.3987 0001576  58.1160 301.9986 15.08822175 55468,6917.935,95.439,540.89,538.71,0.0
51770.0,STARLINK-3612,PAYLOAD,2023-02-17 03:22:42,15.08842271,0.0001522,53.2166,311.5048,69.9419,290.1737,9.6937e-05,1.255e-05,0.0,0 STARLINK-3612,1 51770U 22017C   23048.14076458  .00001255  00000-0  96937-4 0  9995,2 51770  53.2166 311.5048 0001522  69.9419 290.1737 15.08842271 55495,6917.873,95.437,540.791,538.686,0.0
51770.0,STARLINK-3612,PAYLOAD,2023-02-17 17:41:11,15.08825899,0.0001683,53.2152,308.8319,62.5627,297.5537,-0.0002348,-4.022e-05,0.0,0 STARLINK-3612,1 51770U 22017C   23048.73693524 -.00004022  00000-0 -23480-3 0  9998,2 51770  53.2152 308.8319 0001683  62.5627 297.5537 15.08825899 55584,6917.923,95.438,540.953,538.624,0.0
51770.0,STARLINK-3612,PAYLOAD,2023-02-17 20:51:57,15.0882889,0.0001538,53.2157,308.2345,74.5599,285.5563,-0.0001085,-2.014e-05,0.0,0 STARLINK-3612,1 51770U 22017C   23048.86941399 -.00002014  00000-0 -10850-3 0  9994,2 51770  53.2157 308.2345 0001538  74.5599 285.5563 15.08828890 54165,6917.914,95.438,540.843,538.715,0.0
51770.0,STARLINK-3612,PAYLOAD,2023-02-18 00:02:43,15.08835815,0.0001403,53.2166,307.6404,74.7436,285.3711,-0.00012583,-2.29e-05,0.0,0 STARLINK-3612,1 51770U 22017C   23049.00189056 -.00002290  00000-0 -12583-3 0  9996,2 51770  53.2166 307.6404 0001403  74.7436 285.3711 15.08835815 55627,6917.893,95.438,540.729,538.788,0.0
51770.0,STARLINK-3612,PAYLOAD,2023-02-18 09:35:02,15.08837995,0.0001673,53.2171,305.8551,72.7987,287.3188,0.00014884,2.081e-05,0.0,0 STARLINK-3612,1 51770U 22017C   23049.39933238  .00002081  00000-0  14884-3 0  9999,2 51770  53.2171 305.8551 0001673  72.7987 287.3188 15.08837995 54242,6917.887,95.438,540.909,538.594,0.0
51770.0,STARLINK-3612,PAYLOAD,2023-02-18 22:18:07,15.08847937,0.0001284,53.2172,303.4758,78.0326,282.081,0.0004962,7.62e-05,0.0,0 STARLINK-3612,1 51770U 22017C   23049.92925032  .00007620  00000-0  49620-3 0  9991,2 51770  53.2172 303.4758 0001284  78.0326 282.0810 15.08847937 55769,6917.856,95.437,540.609,538.833,0.0
51770.0,STARLINK-3612,PAYLOAD,2023-02-19 09:25:48,15.08854791,0.0001282,53.2169,301.394,79.2967,280.817,0.00038027,5.772e-05,0.0,0 STARLINK-3612,1 51770U 22017C   23050.39292729  .00005772  00000-0  38027-3 0  9999,2 51770  53.2169 301.3940 0001282  79.2967 280.8170 15.08854791 54396,6917.835,95.437,540.587,538.813,0.0
51770.0,STARLINK-3612,PAYLOAD,2023-02-19 23:44:16,15.08851902,0.0001292,53.2172,298.7201,94.895,265.219,0.00021815,3.187e-05,0.0,0 STARLINK-3612,1 51770U 22017C   23050.98908469  .00003187  00000-0  21815-3 0  9994,2 51770  53.2172 298.7201 0001292  94.8950 265.2190 15.08851902 55925,6917.844,95.437,540.603,538.815,0.0
51770.0,STARLINK-3612,PAYLOAD,2023-02-20 09:16:35,15.08843225,0.0001622,53.2168,296.9348,77.8038,282.3135,-5.2885e-07,-2.96e-06,0.0,0 STARLINK-3612,1 51770U 22017C   23051.38652682 -.00000296  00000-0 -52885-6 0  9996,2 51770  53.2168 296.9348 0001622  77.8038 282.3135 15.08843225 55981,6917.871,95.437,540.858,538.613,0.0
51770.0,STARLINK-3612,PAYLOAD,2023-02-21 09:07:22,15.08842625,0.0001037,53.2156,292.4713,81.2338,278.8771,2.8539e-05,1.66e-06,0.0,0 STARLINK-3612,1 51770U 22017C   23052.38012426  .00000166  00000-0  28539-4 0  9994,2 51770  53.2156 292.4713 0001037  81.2338 278.8771 15.08842625 54693,6917.872,95.437,540.455,539.02,0.0
51770.0,STARLINK-3612,PAYLOAD,2023-02-21 18:39:41,15.0884475,0.000112,53.2155,290.6895,84.4987,275.6133,0.00016799,2.387e-05,0.0,0 STARLINK-3612,1 51770U 22017C   23052.77756449  .00002387  00000-0  16799-3 0  9998,2 51770  53.2155 290.6895 0001120  84.4987 275.6133 15.08844750 56196,6917.866,95.437,540.506,538.956,0.0
51770.0,STARLINK-3612,PAYLOAD,2023-02-21 21:50:27,15.0885561,0.0001173,53.2154,290.0941,83.1835,276.9291,0.00034298,5.177e-05,0.0,0 STARLINK-3612,1 51770U 22017C   23052.91004027  .00005177  00000-0  34298-3 0  9996,2 51770  53.2154 290.0941 0001173  83.1835 276.9291 15.08855610 54775,6917.833,95.437,540.509,538.886,0.0
51770.0,STARLINK-3612,PAYLOAD,2023-02-22 02:36:36,15.08869145,0.0001184,53.2149,289.2024,78.812,281.3005,0.0010825,0.00016996,0.0,0 STARLINK-3612,1 51770U 22017C   23053.10875883  .00016996  00000-0  10825-2 0  9994,2 51770  53.2149 289.2024 0001184  78.8120 281.3005 15.08869145 56246,6917.791,95.436,540.475,538.837,0.0
51770.0,STARLINK-3612,PAYLOAD,2023-02-22 18:30:28,15.08834873,0.0001061,53.2146,286.2291,89.381,270.7304,0.00033358,5.024e-05,0.0,0 STARLINK-3612,1 51770U 22017C   23053.77116722  .00005024  00000-0  33358-3 0  9994,2 51770  53.2146 286.2291 0001061  89.3810 270.7304 15.08834873 56348,6917.896,95.438,540.495,539.027,0.0
51770.0,STARLINK-3612,PAYLOAD,2023-02-22 21:41:15,15.08839279,0.0001111,53.2146,285.634,88.3516,271.7603,0.00037591,5.7e-05,0.0,0 STARLINK-3612,1 51770U 22017C   23053.90364800  .00005700  00000-0  37591-3 0  9995,2 51770  53.2146 285.6340 0001111  88.3516 271.7603 15.08839279 54924,6917.883,95.438,540.516,538.979,0.0
